NORAD_CAT_ID,OBJECT_NAME,OBJECT_TYPE,EPOCH,MEAN_MOTION,ECCENTRICITY,INCLINATION,RA_OF_ASC_NODE,ARG_OF_PERICENTER,MEAN_ANOMALY,BSTAR,MEAN_MOTION_DOT,MEAN_MOTION_DDOT,TLE_LINE0,TLE_LINE1,TLE_LINE2,SEMIMAJOR_AXIS,PERIOD,APOGEE,PERIGEE,DECAYED
52540.0,STARLINK-3940,PAYLOAD,2023-06-09 16:24:19,15.08838246,0.0001082,53.2168,316.2801,111.2075,248.9033,0.00013603,1.878e-05,0.0,0 STARLINK-3940,1 52540U 22051H   23160.68356124  .00001878  00000-0  13603-3 0  9993,2 52540  53.2168 316.2801 0001082 111.2075 248.9033 15.08838246 59875,6917.886,95.438,540.499,539.002,0.0
52540.0,STARLINK-3940,PAYLOAD,2023-06-10 09:53:34,15.08841135,8.99e-05,53.2156,313.0087,88.9348,271.1747,0.00014099,1.957e-05,0.0,0 STARLINK-3940,1 52540U 22051H   23161.41220228  .00001957  00000-0  14099-3 0  9998,2 52540  53.2156 313.0087 0000899  88.9348 271.1747 15.08841135 59984,6917.877,95.437,540.364,539.12,0.0
52540.0,STARLINK-3940,PAYLOAD,2023-06-10 14:39:44,15.08826469,0.0001205,53.216,312.1169,114.9402,245.1716,0.0005701,8.794e-05,0.0,0 STARLINK-3940,1 52540U 22051H   23161.61092939  .00008794  00000-0  57010-3 0  9992,2 52540  53.2160 312.1169 0001205 114.9402 245.1716 15.08826469 60019,6917.922,95.438,540.62,538.953,0.0
52540.0,STARLINK-3940,PAYLOAD,2023-06-11 03:22:48,15.08845398,0.0001128,53.2168,309.7384,84.3947,275.7173,5.7173e-05,6.22e-06,0.0,0 STARLINK-3940,1 52540U 22051H   23162.14084107  .00000622  00000-0  57173-4 0  9992,2 52540  53.2168 309.7384 0001128  84.3947 275.7173 15.08845398 60160,6917.864,95.437,540.509,538.949,0.0
52540.0,STARLINK-3940,PAYLOAD,2023-06-11 16:05:54,15.08834463,0.000146,53.2186,307.361,77.6145,282.501,4.1775e-05,3.77e-06,0.0,0 STARLINK-3940,1 52540U 22051H   23162.67077020  .00000377  00000-0  41775-4 0  9994,2 52540  53.2186 307.3610 0001460  77.6145 282.5010 15.08834463 60246,6917.897,95.438,540.772,538.752,0.0
52540.0,STARLINK-3940,PAYLOAD,2023-06-11 19:16:41,15.08829662,0.000128,53.2176,306.7658,80.3964,279.7173,-3.1612e-05,-7.91e-06,0.0,0 STARLINK-3940,1 52540U 22051H   23162.80325282 -.00000791  00000-0 -31612-4 0  9996,2 52540  53.2176 306.7658 0001280  80.3964 279.7173 15.08829662 60197,6917.912,95.438,540.662,538.891,0.0
52540.0,STARLINK-3940,PAYLOAD,2023-06-12 03:13:36,15.08841672,0.0001094,53.2178,305.2773,95.5739,264.5378,8.5013e-05,1.065e-05,0.0,0 STARLINK-3940,1 52540U 22051H   23163.13444594  .00001065  00000-0  85013-4 0  9998,2 52540  53.2178 305.2773 0001094  95.5739 264.5378 15.08841672 60310,6917.875,95.437,540.497,538.983,0.0
52540.0,STARLINK-3940,PAYLOAD,2023-06-12 15:56:40,15.08853139,9.11e-05,53.217,302.8982,91.4675,268.6421,0.0002021,2.931e-05,0.0,0 STARLINK-3940,1 52540U 22051H   23163.66435445  .00002931  00000-0  20210-3 0  9991,2 52540  53.2170 302.8982 0000911  91.4675 268.6421 15.08853139 60391,6917.84,95.437,540.335,539.075,0.0
52540.0,STARLINK-3940,PAYLOAD,2023-06-13 09:25:55,15.0883996,9.6e-05,53.2169,299.6261,90.646,269.4643,0.00021408,3.121e-05,0.0,0 STARLINK-3940,1 52540U 22051H   23164.39300597  .00003121  00000-0  21408-3 0  9993,2 52540  53.2169 299.6261 0000960  90.6460 269.4643 15.08839960 60503,6917.881,95.438,540.41,539.081,0.0
52540.0,STARLINK-3940,PAYLOAD,2023-06-13 18:58:14,15.08841922,8.89e-05,53.2166,297.8443,75.304,284.8051,6.7704e-05,7.9e-06,0.0,0 STARLINK-3940,1 52540U 22051H   23164.79044492  .00000790  00000-0  67704-4 0  9995,2 52540  53.2166 297.8443 0000889  75.3040 284.8051 15.08841922 60499,6917.875,95.437,540.355,539.125,0.0
52540.0,STARLINK-3940,PAYLOAD,2023-06-14 09:16:42,15.08837903,9.87e-05,53.2175,295.1665,85.5609,274.5496,-0.00013636,-2.457e-05,0.0,0 STARLINK-3940,1 52540U 22051H   23165.38660664 -.00002457  00000-0 -13636-3 0  9994,2 52540  53.2175 295.1665 0000987  85.5609 274.5496 15.08837903 60650,6917.887,95.438,540.435,539.069,0.0
52540.0,STARLINK-3940,PAYLOAD,2023-06-15 13:53:39,15.0883351,0.0001128,53.2182,289.8145,114.3066,245.8044,8.7474e-05,1.104e-05,0.0,0 STARLINK-3940,1 52540U 22051H   23166.57893196  .00001104  00000-0  87474-4 0  9992,2 52540  53.2182 289.8145 0001128 114.3066 245.8044 15.08833510 60769,6917.9,95.438,540.546,538.985,0.0
52540.0,STARLINK-3940,PAYLOAD,2023-06-15 18:39:48,15.08838866,0.0001006,53.2182,288.9231,105.4415,254.6688,0.00013071,1.793e-05,0.0,0 STARLINK-3940,1 52540U 22051H   23166.77764850  .00001793  00000-0  13071-3 0  9993,2 52540  53.2182 288.9231 0001006 105.4415 254.6688 15.08838866 60861,6917.884,95.438,540.445,539.053,0.0
52540.0,STARLINK-3940,PAYLOAD,2023-06-16 12:09:02,15.08859971,0.0001098,53.2174,285.6495,83.5185,276.5932,8.4857e-05,1.064e-05,0.0,0 STARLINK-3940,1 52540U 22051H   23167.50627546  .00001064  00000-0  84857-4 0  9997,2 52540  53.2174 285.6495 0001098  83.5185 276.5932 15.08859971 60909,6917.819,95.436,540.444,538.925,0.0
52540.0,STARLINK-3940,PAYLOAD,2023-06-16 13:44:25,15.08858147,0.0001039,53.2172,285.3521,98.6726,261.4383,0.00029294,4.38e-05,0.0,0 STARLINK-3940,1 52540U 22051H   23167.57251764  .00004380  00000-0  29294-3 0  9996,2 52540  53.2172 285.3521 0001039  98.6726 261.4383 15.08858147 60982,6917.825,95.436,540.409,538.971,0.0
52540.0,STARLINK-3940,PAYLOAD,2023-06-16 16:55:11,15.08865201,0.0001027,53.2171,284.7574,94.6933,265.4176,0.00054088,8.337e-05,0.0,0 STARLINK-3940,1 52540U 22051H   23167.70499561  .00008337  00000-0  54088-3 0  9995,2 52540  53.2171 284.7574 0001027  94.6933 265.4176 15.08865201 60933,6917.803,95.436,540.379,538.958,0.0
52540.0,STARLINK-3940,PAYLOAD,2023-06-17 00:52:07,15.08841754,9.47e-05,53.2171,283.2707,102.649,257.4608,6.4386e-05,7.37e-06,0.0,0 STARLINK-3940,1 52540U 22051H   23168.03620351  .00000737  00000-0  64386-4 0  9994,2 52540  53.2171 283.2707 0000947 102.6490 257.4608 15.08841754 61055,6917.875,95.437,540.395,539.085,0.0
52540.0,STARLINK-3940,PAYLOAD,2023-06-17 08:49:04,15.08827336,0.0001503,53.2165,281.7842,96.2681,263.8482,-0.00039842,-6.621e-05,0.0,0 STARLINK-3940,1 52540U 22051H   23168.36740833 -.00006621  00000-0 -39842-3 0  9996,2 52540  53.2165 281.7842 0001503  96.2681 263.8482 15.08827336 61107,6917.919,95.438,540.824,538.744,0.0
52540.0,STARLINK-3940,PAYLOAD,2023-06-17 16:46:00,15.0882163,0.0001048,53.2164,280.298,107.6029,252.5078,-1.1939e-05,-4.78e-06,0.0,0 STARLINK-3940,1 52540U 22051H   23168.69861311 -.00000478  00000-0 -11939-4 0  9999,2 52540  53.2164 280.2980 0001048 107.6029 252.5078 15.08821630 61084,6917.937,95.439,540.527,539.077,0.0
52540.0,STARLINK-3940,PAYLOAD,2023-06-18 07:04:28,15.08840383,8.47e-05,53.2162,277.6229,114.266,245.8421,0.0012526,0.00019704,0.0,0 STARLINK-3940,1 52540U 22051H   23169.29477816  .00019704  00000-0  12526-2 0  9990,2 52540  53.2162 277.6229 0000847 114.2660 245.8421 15.08840383 61240,6917.879,95.438,540.33,539.158,0.0
52540.0,STARLINK-3940,PAYLOAD,2023-06-18 13:26:01,15.08853671,7.83e-05,53.2158,276.4337,110.9001,249.2075,0.0013523,0.00021307,0.0,0 STARLINK-3940,1 52540U 22051H   23169.55973610  .00021307  00000-0  13523-2 0  9992,2 52540  53.2158 276.4337 0000783 110.9001 249.2075 15.08853671 61217,6917.839,95.437,540.245,539.162,0.0
52540.0,STARLINK-3940,PAYLOAD,2023-06-19 00:33:43,15.0884936,6.16e-05,53.2144,274.3524,109.2837,250.8222,0.00054564,8.409e-05,0.0,0 STARLINK-3940,1 52540U 22051H   23170.02341448  .00008409  00000-0  54564-3 0  9993,2 52540  53.2144 274.3524 0000616 109.2837 250.8222 15.08849360 61357,6917.852,95.437,540.143,539.291,0.0
52540.0,STARLINK-3940,PAYLOAD,2023-06-19 13:16:47,15.08853626,7.12e-05,53.2153,271.9726,110.1836,249.9233,0.00048584,7.456e-05,0.0,0 STARLINK-3940,1 52540U 22051H   23170.55333180  .00007456  00000-0  48584-3 0  9991,2 52540  53.2153 271.9726 0000712 110.1836 249.9233 15.08853626 61363,6917.839,95.437,540.196,539.211,0.0
52540.0,STARLINK-3940,PAYLOAD,2023-06-19 14:52:10,15.08857238,7.46e-05,53.2153,271.6752,108.6469,251.4604,0.00061732,9.555e-05,0.0,0 STARLINK-3940,1 52540U 22051H   23170.61957075  .00009555  00000-0  61732-3 0  9995,2 52540  53.2153 271.6752 0000746 108.6469 251.4604 15.08857238 61374,6917.828,95.436,540.209,539.177,0.0
52540.0,STARLINK-3940,PAYLOAD,2023-06-20 08:21:25,15.08845151,5.42e-05,53.2157,268.4053,85.431,274.6744,0.00016632,2.361e-05,0.0,0 STARLINK-3940,1 52540U 22051H   23171.34821203  .00002361  00000-0  16632-3 0  9996,2 52540  53.2157 268.4053 0000542  85.4310 274.6744 15.08845151 61550,6917.865,95.437,540.105,539.355,0.0
52540.0,STARLINK-3940,PAYLOAD,2023-06-20 16:18:21,15.08847841,6.74e-05,53.2158,266.9186,101.6169,258.4898,0.00014276,1.986e-05,0.0,0 STARLINK-3940,1 52540U 22051H   23171.67941025  .00001986  00000-0  14276-3 0  9991,2 52540  53.2158 266.9186 0000674 101.6169 258.4898 15.08847841 61536,6917.856,95.437,540.188,539.255,0.0
52540.0,STARLINK-3940,PAYLOAD,2023-06-21 12:58:21,15.08845359,8.01e-05,53.2158,263.0537,97.9338,262.1745,9.938e-05,1.295e-05,0.0,0 STARLINK-3940,1 52540U 22051H   23172.54053099  .00001295  00000-0  99380-4 0  9996,2 52540  53.2158 263.0537 0000801  97.9338 262.1745 15.08845359 61738,6917.864,95.437,540.283,539.175,0.0
52540.0,STARLINK-3940,PAYLOAD,2023-06-22 09:38:23,15.0883769,0.0001,53.2156,259.1874,101.7813,258.3292,5.2777e-05,5.52e-06,0.0,0 STARLINK-3940,1 52540U 22051H   23173.40165529  .00000552  00000-0  52777-4 0  9998,2 52540  53.2156 259.1874 0001000 101.7813 258.3292 15.08837690 61867,6917.887,95.438,540.444,539.061,0.0
52540.0,STARLINK-3940,PAYLOAD,2023-06-23 12:39:56,15.08842708,7.93e-05,53.2165,254.1331,98.8944,261.2138,0.00010469,1.379e-05,0.0,0 STARLINK-3940,1 52540U 22051H   23174.52773325  .00001379  00000-0  10469-3 0  9990,2 52540  53.2165 254.1331 0000793  98.8944 261.2138 15.08842708 62037,6917.872,95.437,540.286,539.189,0.0
52540.0,STARLINK-3940,PAYLOAD,2023-06-24 14:06:06,15.08844944,6.73e-05,53.2147,249.3731,79.7752,280.3316,0.00014231,1.978e-05,0.0,0 STARLINK-3940,1 52540U 22051H   23175.58757344  .00001978  00000-0  14231-3 0  9996,2 52540  53.2147 249.3731 0000673  79.7752 280.3316 15.08844944 62190,6917.865,95.437,540.196,539.265,0.0
